{"type": "FeatureCollection", "features": [ {"type": "Feature", "properties": {"norad_id": 31754, "name": "FENGYUN 1C DEB", "group": "fengyun-1c-debris", "lat": -65.06915095205798, "lon": -12.33017805012833, "alt_km": 775.4223983840748, "timestamp": "2025-12-27T11:23:20.181393+00:00", "meta": {"OBJECT_NAME": "FENGYUN 1C DEB", "OBJECT_ID": "1999-025CFD", "EPOCH": "2025-12-26T20:42:57.525120", "MEAN_MOTION": 14.42346503, "ECCENTRICITY": 0.0049649, "INCLINATION": 99.0415, "RA_OF_ASC_NODE": 326.99, "ARG_OF_PERICENTER": 175.3209, "MEAN_ANOMALY": 184.8453, "EPHEMERIS_TYPE": 0, "CLASSIFICATION_TYPE": "U", "NORAD_CAT_ID": 31754, "ELEMENT_SET_NO": 999, "REV_AT_EPOCH": 97193, "BSTAR": 0.0011134, "MEAN_MOTION_DOT": 3.685e-05, "MEAN_MOTION_DDOT": 0}, "tle": {"line1": "1 31754U 99025CFD 25360.86316580  .00003685  00000+0  11134-2 0  9991", "line2": "2 31754  99.0415 326.9900 0049649 175.3209 184.8453 14.42346503971932"}}, "geometry": {"type": "Point", "coordinates": [-12.33017805012833, -65.06915095205798]}}, {"type": "Feature", "properties": {"norad_id": 31757, "name": "FENGYUN 1C DEB", "group": "fengyun-1c-debris", "lat": -78.69823176504175, "lon": 73.67837359784191, "alt_km": 962.9214273450389, "timestamp": "2025-12-27T11:23:20.181403+00:00", "meta": {"OBJECT_NAME": "FENGYUN 1C DEB", "OBJECT_ID": "1999-025CFG", "EPOCH": "2025-12-19T19:34:47.252352", "MEAN_MOTION": 14.07925739, "ECCENTRICITY": 0.02177667, "INCLINATION": 98.7671, "RA_OF_ASC_NODE": 15.6869, "ARG_OF_PERICENTER": 64.1846, "MEAN_ANOMALY": 298.1612, "EPHEMERIS_TYPE": 0, "CLASSIFICATION_TYPE": "U", "NORAD_CAT_ID": 31757, "ELEMENT_SET_NO": 999, "REV_AT_EPOCH": 63981, "BSTAR": 9.3425243e-05, "MEAN_MOTION_DOT": 1.55e-06, "MEAN_MOTION_DDOT": 0}, "tle": {"line1": "1 31757U 99025CFG 25353.81582468  .00000155  00000+0  93425-4 0  9995", "line2": "2 31757  98.7671  15.6869 0217766  64.1846 298.1612 14.07925739639819"}}, "geometry": {"type": "Point", "coordinates": [73.67837359784191, -78.69823176504175]}}, {"type": "Feature", "properties": {"norad_id": 31758, "name": "FENGYUN 1C DEB", "group": "fengyun-1c-debris", "lat": 3.724012726634398, "lon": -169.71038395440974, "alt_km": 895.8426836196068, "timestamp": "2025-12-27T11:23:20.181414+00:00", "meta": {"OBJECT_NAME": "FENGYUN 1C DEB", "OBJECT_ID": "1999-025CFH", "EPOCH": "2025-12-25T11:58:59.903616", "MEAN_MOTION": 14.4233459, "ECCENTRICITY": 0.031665, "INCLINATION": 98.0606, "RA_OF_ASC_NODE": 7.8908, "ARG_OF_PERICENTER": 51.4999, "MEAN_ANOMALY": 311.414, "EPHEMERIS_TYPE": 0, "CLASSIFICATION_TYPE": "U", "NORAD_CAT_ID": 31758, "ELEMENT_SET_NO": 999, "REV_AT_EPOCH": 94384, "BSTAR": 0.0025434, "MEAN_MOTION_DOT": 0.00015408, "MEAN_MOTION_DDOT": 0}, "tle": {"line1": "1 31758U 99025CFH 25359.49930444  .00015408  00000+0  25434-2 0  9997", "line2": "2 31758  98.0606   7.8908 0316650  51.4999 311.4140 14.42334590943842"}}, "geometry": {"type": "Point", "coordinates": [-169.71038395440974, 3.724012726634398]}}, {"type": "Feature", "properties": {"norad_id": 31760, "name": "FENGYUN 1C DEB", "group": "fengyun-1c-debris", "lat": -75.68452590788013, "lon": -119.63547901294656, "alt_km": 807.0491724864014, "timestamp": "2025-12-27T11:23:20.181424+00:00", "meta": {"OBJECT_NAME": "FENGYUN 1C DEB", "OBJECT_ID": "1999-025CFK", "EPOCH": "2025-12-26T17:23:43.613376", "MEAN_MOTION": 14.30228389, "ECCENTRICITY": 0.00531622, "INCLINATION": 99.2536, "RA_OF_ASC_NODE": 99.2754, "ARG_OF_PERICENTER": 157.5122, "MEAN_ANOMALY": 202.8406, "EPHEMERIS_TYPE": 0, "CLASSIFICATION_TYPE": "U", "NORAD_CAT_ID": 31760, "ELEMENT_SET_NO": 999, "REV_AT_EPOCH": 96332, "BSTAR": 0.00073421898, "MEAN_MOTION_DOT": 1.883e-05, "MEAN_MOTION_DDOT": 0}, "tle": {"line1": "1 31760U 99025CFK 25360.72481034  .00001883  00000+0  73422-3 0  9997", "line2": "2 31760  99.2536  99.2754 0053162 157.5122 202.8406 14.30228389963324"}}, "geometry": {"type": "Point", "coordinates": [-119.63547901294656, -75.68452590788013]}}, {"type": "Feature", "properties": {"norad_id": 31761, "name": "FENGYUN 1C DEB", "group": "fengyun-1c-debris", "lat": 48.186466711836026, "lon": 54.4599351873476, "alt_km": 865.1831307894372, "timestamp": "2025-12-27T11:23:20.181434+00:00", "meta": {"OBJECT_NAME": "FENGYUN 1C DEB", "OBJECT_ID": "1999-025CFL", "EPOCH": "2025-12-26T09:03:40.559328", "MEAN_MOTION": 14.03653694, "ECCENTRICITY": 0.0470823, "INCLINATION": 98.6342, "RA_OF_ASC_NODE": 223.6341, "ARG_OF_PERICENTER": 224.8549, "MEAN_ANOMALY": 131.3656, "EPHEMERIS_TYPE": 0, "CLASSIFICATION_TYPE": "U", "NORAD_CAT_ID": 31761, "ELEMENT_SET_NO": 999, "REV_AT_EPOCH": 58302, "BSTAR": 0.0017034, "MEAN_MOTION_DOT": 7.224e-05, "MEAN_MOTION_DDOT": 0}, "tle": {"line1": "1 31761U 99025CFL 25360.37755277  .00007224  00000+0  17034-2 0  9993", "line2": "2 31761  98.6342 223.6341 0470823 224.8549 131.3656 14.03653694583025"}}, "geometry": {"type": "Point", "coordinates": [54.4599351873476, 48.186466711836026]}}, {"type": "Feature", "properties": {"norad_id": 31763, "name": "FENGYUN 1C DEB", "group": "fengyun-1c-debris", "lat": -44.956116828087026, "lon": -80.77432774585104, "alt_km": 1471.0240554100183, "timestamp": "2025-12-27T11:23:20.181444+00:00", "meta": {"OBJECT_NAME": "FENGYUN 1C DEB", "OBJECT_ID": "1999-025CFN", "EPOCH": "2025-12-24T01:21:59.387040", "MEAN_MOTION": 13.50350677, "ECCENTRICITY": 0.0546364, "INCLINATION": 98.5205, "RA_OF_ASC_NODE": 104.8899, "ARG_OF_PERICENTER": 40.2812, "MEAN_ANOMALY": 141.7775, "EPHEMERIS_TYPE": 0, "CLASSIFICATION_TYPE": "U", "NORAD_CAT_ID": 31763, "ELEMENT_SET_NO": 999, "REV_AT_EPOCH": 91158, "BSTAR": 0.00057862124, "MEAN_MOTION_DOT": 9.11e-06, "MEAN_MOTION_DDOT": 0}, "tle": {"line1": "1 31763U 99025CFN 25358.05693735  .00000911  00000+0  57862-3 0  9997", "line2": "2 31763  98.5205 104.8899 0546364  40.2812 141.7775 13.50350677911588"}}, "geometry": {"type": "Point", "coordinates": [-80.77432774585104, -44.956116828087026]}}, {"type": "Feature", "properties": {"norad_id": 31766, "name": "FENGYUN 1C DEB", "group": "fengyun-1c-debris", "lat": -63.088759025979506, "lon": 161.08727496152812, "alt_km": 829.605159678872, "timestamp": "2025-12-27T11:23:20.181454+00:00", "meta": {"OBJECT_NAME": "FENGYUN 1C DEB", "OBJECT_ID": "1999-025CFR", "EPOCH": "2025-12-22T05:29:01.188672", "MEAN_MOTION": 14.05283405, "ECCENTRICITY": 0.00734706, "INCLINATION": 98.8171, "RA_OF_ASC_NODE": 353.7923, "ARG_OF_PERICENTER": 264.1767, "MEAN_ANOMALY": 95.1022, "EPHEMERIS_TYPE": 0, "CLASSIFICATION_TYPE": "U", "NORAD_CAT_ID": 31766, "ELEMENT_SET_NO": 999, "REV_AT_EPOCH": 64219, "BSTAR": 0.00016407086, "MEAN_MOTION_DOT": 2.28e-06, "MEAN_MOTION_DDOT": 0}, "tle": {"line1": "1 31766U 99025CFR 25356.22848598  .00000228  00000+0  16407-3 0  9997", "line2": "2 31766  98.8171 353.7923 0073470 264.1767  95.1022 14.05283405642198"}}, "geometry": {"type": "Point", "coordinates": [161.08727496152812, -63.088759025979506]}}, {"type": "Feature", "properties": {"norad_id": 31767, "name": "FENGYUN 1C DEB", "group": "fengyun-1c-debris", "lat": -20.06644968652911, "lon": -152.49484281616512, "alt_km": 911.3857321055402, "timestamp": "2025-12-27T11:23:20.181464+00:00", "meta": {"OBJECT_NAME": "FENGYUN 1C DEB", "OBJECT_ID": "1999-025CFS", "EPOCH": "2025-12-24T13:06:04.201344", "MEAN_MOTION": 14.04960762, "ECCENTRICITY": 0.00413509, "INCLINATION": 98.8206, "RA_OF_ASC_NODE": 27.9098, "ARG_OF_PERICENTER": 37.4471, "MEAN_ANOMALY": 118.1343, "EPHEMERIS_TYPE": 0, "CLASSIFICATION_TYPE": "U", "NORAD_CAT_ID": 31767, "ELEMENT_SET_NO": 999, "REV_AT_EPOCH": 94991, "BSTAR": 0.00032088657, "MEAN_MOTION_DOT": 4.77e-06, "MEAN_MOTION_DDOT": 0}, "tle": {"line1": "1 31767U 99025CFS 25358.54588196  .00000477  00000+0  32089-3 0  9990", "line2": "2 31767  98.8206  27.9098 0041350  37.4471 118.1343 14.04960762949915"}}, "geometry": {"type": "Point", "coordinates": [-152.49484281616512, -20.06644968652911]}}, {"type": "Feature", "properties": {"norad_id": 31768, "name": "FENGYUN 1C DEB", "group": "fengyun-1c-debris", "lat": 44.05527803015148, "lon": -95.04228967839231, "alt_km": 653.6361336927839, "timestamp": "2025-12-27T11:23:20.181476+00:00", "meta": {"OBJECT_NAME": "FENGYUN 1C DEB", "OBJECT_ID": "1999-025CFT", "EPOCH": "2025-12-24T23:24:56.682720", "MEAN_MOTION": 14.7653893, "ECCENTRICITY": 0.00265868, "INCLINATION": 99.0407, "RA_OF_ASC_NODE": 73.3007, "ARG_OF_PERICENTER": 301.9277, "MEAN_ANOMALY": 237.8153, "EPHEMERIS_TYPE": 0, "CLASSIFICATION_TYPE": "U", "NORAD_CAT_ID": 31768, "ELEMENT_SET_NO": 999, "REV_AT_EPOCH": 97053, "BSTAR": 0.0026794233, "MEAN_MOTION_DOT": 0.00018774, "MEAN_MOTION_DDOT": 0}, "tle": {"line1": "1 31768U 99025CFT 25358.97565605  .00018774  00000+0  26794-2 0  9992", "line2": "2 31768  99.0407  73.3007 0026586 301.9277 237.8153 14.76538930970531"}}, "geometry": {"type": "Point", "coordinates": [-95.04228967839231, 44.05527803015148]}}, {"type": "Feature", "properties": {"norad_id": 31772, "name": "FENGYUN 1C DEB", "group": "fengyun-1c-debris", "lat": 55.32489262671932, "lon": -94.32723834890908, "alt_km": 752.3263680289047, "timestamp": "2025-12-27T11:23:20.181486+00:00", "meta": {"OBJECT_NAME": "FENGYUN 1C DEB", "OBJECT_ID": "1999-025CFX", "EPOCH": "2025-12-21T17:20:55.932576", "MEAN_MOTION": 14.11729705, "ECCENTRICITY": 0.01371811, "INCLINATION": 98.4737, "RA_OF_ASC_NODE": 272.682, "ARG_OF_PERICENTER": 88.103, "MEAN_ANOMALY": 273.5847, "EPHEMERIS_TYPE": 0, "CLASSIFICATION_TYPE": "U", "NORAD_CAT_ID": 31772, "ELEMENT_SET_NO": 999, "REV_AT_EPOCH": 71010, "BSTAR": 0.0008718097, "MEAN_MOTION_DOT": 1.696e-05, "MEAN_MOTION_DDOT": 0}, "tle": {"line1": "1 31772U 99025CFX 25355.72286959  .00001696  00000+0  87181-3 0  9992", "line2": "2 31772  98.4737 272.6820 0137181  88.1030 273.5847 14.11729705710100"}}, "geometry": {"type": "Point", "coordinates": [-94.32723834890908, 55.32489262671932]}}]}